NORAD_CAT_ID,OBJECT_NAME,OBJECT_TYPE,EPOCH,MEAN_MOTION,ECCENTRICITY,INCLINATION,RA_OF_ASC_NODE,ARG_OF_PERICENTER,MEAN_ANOMALY,BSTAR,MEAN_MOTION_DOT,MEAN_MOTION_DDOT,TLE_LINE0,TLE_LINE1,TLE_LINE2,SEMIMAJOR_AXIS,PERIOD,APOGEE,PERIGEE,DECAYED
50171.0,STARLINK-3286,PAYLOAD,2022-02-11 14:00:01,15.65334553,0.0001052,53.2175,93.2521,82.8361,245.5808,-0.006997,-0.00655739,0.0,0 STARLINK-3286,1 50171U 21125R   22042.58334491 -.00655739  00000-0 -69970-2 0  9992,2 50171  53.2175  93.2521 0001052  82.8361 245.5808 15.65334553 11494,6750.4140000000025,91.993,372.989,371.569,0.0
50171.0,STARLINK-3286,PAYLOAD,2022-02-11 22:00:01,15.65570399,0.000153,53.2155,91.6447,73.3877,334.9322,0.0011728,0.00121258,0.0,0 STARLINK-3286,1 50171U 21125R   22042.91668981  .00121258  00000-0  11728-2 0  9993,2 50171  53.2155  91.6447 0001530  73.3877 334.9322 15.65570399 11549,6749.736,91.979,372.634,370.568,0.0
50171.0,STARLINK-3286,PAYLOAD,2022-02-12 05:27:44,15.64935152,9.31e-05,53.2166,90.1263,44.1249,315.9842,-0.0026204,-0.00254035,0.0,0 STARLINK-3286,1 50171U 21125R   22043.22760247 -.00254035  00000-0 -26204-2 0  9993,2 50171  53.2166  90.1263 0000931  44.1249 315.9842 15.64935152 11596,6751.562,92.017,374.056,372.799,0.0
50171.0,STARLINK-3286,PAYLOAD,2022-02-12 13:07:48,15.6437368,0.0001161,53.2157,88.56,89.9907,270.1242,-0.0034602,-0.00325078,0.0,0 STARLINK-3286,1 50171U 21125R   22043.54708614 -.00325078  00000-0 -34602-2 0  9995,2 50171  53.2157  88.5600 0001161  89.9907 270.1242 15.64373680 12135,6753.178000000001,92.05,375.827,374.259,0.0
50171.0,STARLINK-3286,PAYLOAD,2022-02-12 22:00:00,15.63469185,0.0001128,53.2175,86.7306,74.3627,207.4743,-0.0075548,-0.00657138,0.0,0 STARLINK-3286,1 50171U 21125R   22043.91667824 -.00657138  00000-0 -75548-2 0  9992,2 50171  53.2175  86.7306 0001128  74.3627 207.4743 15.63469185 11704,6755.781999999997,92.103,378.409,376.885,0.0
50171.0,STARLINK-3286,PAYLOAD,2022-02-13 14:00:01,15.625350400000002,0.0001102,53.2173,83.4795,65.7515,9.4303,-0.0078091,-0.00654873,0.0,0 STARLINK-3286,1 50171U 21125R   22044.58334491 -.00654873  00000-0 -78091-2 0  9996,2 50171  53.2173  83.4795 0001102  65.7515   9.4303 15.62535040  3694,6758.474,92.158,381.084,379.594,0.0
50171.0,STARLINK-3286,PAYLOAD,2022-02-13 22:00:00,15.62068514,0.0001284,53.2174,81.8527,58.5888,92.4262,-0.0079531,-0.00654893,0.0,0 STARLINK-3286,1 50171U 21125R   22044.91667824 -.00654893  00000-0 -79531-2 0  9994,2 50171  53.2174  81.8527 0001284  58.5888  92.4262 15.62068514 11865,6759.82,92.185,382.55300000000005,380.817,0.0
50171.0,STARLINK-3286,PAYLOAD,2022-02-14 14:00:01,15.611361,0.0001139,53.2173,78.6084,74.0861,226.9092,-0.0082546,-0.00655395,0.0,0 STARLINK-3286,1 50171U 21125R   22045.58334491 -.00655395  00000-0 -82546-2 0  9997,2 50171  53.2173  78.6084 0001139  74.0861 226.9092 15.61136100  3692,6762.511,92.241,385.146,383.606,0.0
50171.0,STARLINK-3286,PAYLOAD,2022-02-14 20:00:01,15.60788862,0.0001252999999999,53.2175,77.3907,64.69800000000001,201.9626,-0.0084409999999999,-0.00660806,0.0,0 STARLINK-3286,1 50171U 21125R   22045.83334491 -.00660806  00000-0 -84410-2 0  9990,2 50171  53.2175  77.3907 0001253  64.6980 201.9626 15.60788862 12006,6763.514,92.261,386.227,384.532,0.0
50171.0,STARLINK-3286,PAYLOAD,2022-02-15 14:00:01,15.59606973,0.0001539,53.2163,73.7494,49.7738,112.057,-0.0062916,-0.00481305,0.0,0 STARLINK-3286,1 50171U 21125R   22046.58334491 -.00481305  00000-0 -62916-2 0  9995,2 50171  53.2163  73.7494 0001539  49.7738 112.0570 15.59606973  3668,6766.931,92.331,389.837,387.754,0.0
50171.0,STARLINK-3286,PAYLOAD,2022-02-15 22:00:01,15.59269289,0.0001314,53.2173,72.1274,60.5639,173.7343,-0.0088617,-0.00654837,0.0,0 STARLINK-3286,1 50171U 21125R   22046.91668981 -.00654837  00000-0 -88617-2 0  9994,2 50171  53.2173  72.1274 0001314  60.5639 173.7343 15.59269289 12173,6767.908,92.351,390.662,388.883,0.0
50171.0,STARLINK-3286,PAYLOAD,2022-02-16 14:00:01,15.58337986,0.0001071,53.2172,68.8969,68.2407,309.2447,-0.0092144,-0.00656946,0.0,0 STARLINK-3286,1 50171U 21125R   22047.58334491 -.00656946  00000-0 -92144-2 0  9997,2 50171  53.2172  68.8969 0001071  68.2407 309.2447 15.58337986  3690,6770.604,92.406,393.194,391.744,0.0
50171.0,STARLINK-3286,PAYLOAD,2022-02-16 22:00:00,15.57742458,0.0001347,53.2171,67.282,38.4222,49.9174,-0.0067902,-0.00483746,0.0,0 STARLINK-3286,1 50171U 21125R   22047.91667824 -.00483746  00000-0 -67902-2 0  9993,2 50171  53.2171  67.2820 0001347  38.4222  49.9174 15.57742458 12326,6772.329000000002,92.441,395.107,393.282,0.0
50171.0,STARLINK-3286,PAYLOAD,2022-02-17 06:00:00,15.57290008,0.0001424,53.217,65.6693,66.6539,91.9051,-0.0072342,-0.00505309,0.0,0 STARLINK-3286,1 50171U 21125R   22048.25001157 -.00505309  00000-0 -72342-2 0  9996,2 50171  53.2170  65.6693 0001424  66.6539  91.9051 15.57290008 12381,6773.641,92.468,396.471,394.541,0.0
50171.0,STARLINK-3286,PAYLOAD,2022-02-17 14:00:01,15.5685941,0.0001304,53.2164,64.0576,58.5687,169.6317,-0.0080211,-0.00548307,0.0,0 STARLINK-3286,1 50171U 21125R   22048.58334491 -.00548307  00000-0 -80211-2 0  9991,2 50171  53.2164  64.0576 0001304  58.5687 169.6317 15.56859410 12439,6774.89,92.494,397.638,395.871,0.0
50171.0,STARLINK-3286,PAYLOAD,2022-02-17 22:00:00,15.56469499,0.0001206,53.2172,62.44300000000001,64.4678,232.801,-0.009843,-0.00654291,0.0,0 STARLINK-3286,1 50171U 21125R   22048.91667824 -.00654291  00000-0 -98430-2 0  9999,2 50171  53.2172  62.4430 0001206  64.4678 232.8010 15.56469499 12488,6776.021,92.517,398.704,397.069,0.0
50171.0,STARLINK-3286,PAYLOAD,2022-02-18 14:00:01,15.55538369,0.000114,53.217,59.2258,64.3623,9.4311,-0.010231,-0.00656676,0.0,0 STARLINK-3286,1 50171U 21125R   22049.58334491 -.00656676  00000-0 -10231-1 0  9995,2 50171  53.2170  59.2258 0001140  64.3623   9.4311 15.55538369  3703,6778.725,92.572,401.36300000000006,399.817,0.0
50171.0,STARLINK-3286,PAYLOAD,2022-02-18 20:00:01,15.55186521,0.0001156,53.2174,58.0182,55.0991,339.3156,-0.010324,-0.00654258,0.0,0 STARLINK-3286,1 50171U 21125R   22049.83334491 -.00654258  00000-0 -10324-1 0  9990,2 50171  53.2174  58.0182 0001156  55.0991 339.3156 15.55186521 12624,6779.746999999999,92.593,402.396,400.829,0.0
50171.0,STARLINK-3286,PAYLOAD,2022-02-19 14:00:01,15.54016567,0.0001240999999999,53.2165,54.4066,55.2102,219.2357,-0.0080553,-0.00498683,0.0,0 STARLINK-3286,1 50171U 21125R   22050.58334491 -.00498683  00000-0 -80553-2 0  9994,2 50171  53.2165  54.4066 0001241  55.2102 219.2357 15.54016567  3660,6783.15,92.663,405.857,404.173,0.0
50171.0,STARLINK-3286,PAYLOAD,2022-02-19 22:00:00,15.53521443,0.0001278,53.2168,52.8004,41.1141,299.088,-0.0075021999999999,-0.00458445,0.0,0 STARLINK-3286,1 50171U 21125R   22050.91667824 -.00458445  00000-0 -75022-2 0  9997,2 50171  53.2168  52.8004 0001278  41.1141 299.0880 15.53521443 12798,6784.590999999999,92.693,407.323,405.589,0.0
50171.0,STARLINK-3286,PAYLOAD,2022-02-20 06:00:00,15.53076975,0.0001209,53.2172,51.199,51.5335,353.8339,-0.0081137,-0.00486126,0.0,0 STARLINK-3286,1 50171U 21125R   22051.25001157 -.00486126  00000-0 -81137-2 0  9997,2 50171  53.2172  51.1990 0001209  51.5335 353.8339 15.53076975 12842,6785.885,92.719,408.571,406.93,0.0
50171.0,STARLINK-3286,PAYLOAD,2022-02-20 14:00:01,15.52603347,0.0001295,53.2163,49.5965,53.8393,56.1472,-0.007969,-0.00470269,0.0,0 STARLINK-3286,1 50171U 21125R   22051.58334491 -.00470269  00000-0 -79690-2 0  9995,2 50171  53.2163  49.5965 0001295  53.8393  56.1472 15.52603347 12893,6787.265,92.747,410.009,408.251,0.0
50171.0,STARLINK-3286,PAYLOAD,2022-02-20 22:00:00,15.52272949,0.0001377,53.2172,47.9922,60.4916,113.4863,-0.011562,-0.00658249,0.0,0 STARLINK-3286,1 50171U 21125R   22051.91667824 -.00658249  00000-0 -11562-1 0  9990,2 50171  53.2172  47.9922 0001377  60.4916 113.4863 15.52272949 12952,6788.228,92.767,411.028,409.159,0.0
50171.0,STARLINK-3286,PAYLOAD,2022-02-21 22:00:00,15.50747619,0.0001145,53.2167,43.1968,52.2873,310.5671,-0.0088568,-0.00487776,0.0,0 STARLINK-3286,1 50171U 21125R   22052.91667824 -.00487776  00000-0 -88568-2 0  9997,2 50171  53.2167  43.1968 0001145  52.2873 310.5671 15.50747619  3662,6792.679,92.858,415.322,413.766,0.0
50171.0,STARLINK-3286,PAYLOAD,2022-02-22 04:00:00,15.50522145,0.0001405,53.2173,41.9995,51.4943,267.7094,-0.012257,-0.00655443,0.0,0 STARLINK-3286,1 50171U 21125R   22053.16667824 -.00655443  00000-0 -12257-1 0  9994,2 50171  53.2173  41.9995 0001405  51.4943 267.7094 15.50522145 13144,6793.3380000000025,92.872,416.157,414.24800000000016,0.0
50171.0,STARLINK-3286,PAYLOAD,2022-02-22 14:00:01,15.49939225,0.0001279,53.2172,40.0048,61.4238,64.4368,-0.012525,-0.00655927,0.0,0 STARLINK-3286,1 50171U 21125R   22053.58334491 -.00655927  00000-0 -12525-1 0  9996,2 50171  53.2172  40.0048 0001279  61.4238  64.4368 15.49939225  3682,6795.041,92.907,417.775,416.037,0.0
50171.0,STARLINK-3286,PAYLOAD,2022-02-22 22:00:00,15.49473556,0.0001369,53.2174,38.4089,61.4212,125.1346,-0.012761,-0.00657221,0.0,0 STARLINK-3286,1 50171U 21125R   22053.91667824 -.00657221  00000-0 -12761-1 0  9993,2 50171  53.2174  38.4089 0001369  61.4212 125.1346 15.49473556  3683,6796.401999999999,92.935,419.197,417.337,0.0
50171.0,STARLINK-3286,PAYLOAD,2022-02-23 06:00:00,15.49005341,0.0001636999999999,53.2175,36.8176,47.6652,199.0242,-0.012925,-0.00654953,0.0,0 STARLINK-3286,1 50171U 21125R   22054.25001157 -.00654953  00000-0 -12925-1 0  9993,2 50171  53.2175  36.8176 0001637  47.6652 199.0242 15.49005341 13314,6797.772,92.963,420.749,418.524,0.0
50171.0,STARLINK-3286,PAYLOAD,2022-02-23 14:00:01,15.48540562,0.0001221,53.2174,35.2246,68.4067,237.8561,-0.013207,-0.00658024,0.0,0 STARLINK-3286,1 50171U 21125R   22054.58334491 -.00658024  00000-0 -13207-1 0  9996,2 50171  53.2174  35.2246 0001221  68.4067 237.8561 15.48540562  3709,6799.132,92.991,421.827,420.166,0.0
